#aV2012  3 28  0  0  0.00000000     288 DD+AD WGS84 FIT  NGA
## 1681 259200.00000000   300.00000000 56014 0.0000000000000
+   31     1  2  3  4  5  6  7  8  9 10 11 12 13 14 15 16 17
+         18 19 20 21 22 23 25 26 27 28 29 30 31 32  0  0  0
+          0  0  0  0  0  0  0  0  0  0  0  0  0  0  0  0  0
+          0  0  0  0  0  0  0  0  0  0  0  0  0  0  0  0  0
+          0  0  0  0  0  0  0  0  0  0  0  0  0  0  0  0  0
++         2  2  2  2  2  2  2  2  2  2  2  2  2  2  2  2  2
++         2  2  2  2  2  2  2  2  2  2  2  2  2  2  2  0  0
++         0  0  0  0  0  0  0  0  0  0  0  0  0  0  0  0  0
++         0  0  0  0  0  0  0  0  0  0  0  0  0  0  0  0  0
++         0  0  0  0  0  0  0  0  0  0  0  0  0  0  0  0  0
%c cc cc ccc ccc cccc cccc cccc cccc ccccc ccccc ccccc ccccc
%c cc cc ccc ccc cccc cccc cccc cccc ccccc ccccc ccccc ccccc
%f  0.0000000  0.000000000  0.00000000000  0.000000000000000
%f  0.0000000  0.000000000  0.00000000000  0.000000000000000
%i    0    0    0    0      0      0      0      0         0
%i    0    0    0    0      0      0      0      0         0
/*      NGA, ST. LOUIS,MO.                                  
/*   EPHEMERIS COMPUTED FROM  1 DAYS OF DATA
/*   EPOCHA SMOOTHER  
/* CCCCCCCCCCCCCCCCCCCCCCCCCCCCCCCCCCCCCCCCCCCCCCCCCCCCCCCCC
*  2012  3 28 12 40  0.00000000                                                 
P  1     34.503491  15827.813179 -21335.752470    240.195801                    
V  1 -25694.044884   8548.652259   6325.474711      0.059623                    
P  2  21228.349137 -13677.306027   7450.170777    384.535168                    
V  2  10166.744911    164.443888 -29610.830246      0.014618                    
P  3 -10634.983441  20240.954102  12815.197798     28.503945                    
V  3  -2413.834779 -17352.961079  24807.466510      0.051546                    
P  4  25771.062897  -6301.289345  -3539.536116    136.421853                    
V  4  -2878.272946   4393.384442 -30614.602578      0.114062                    
P  5  10542.463776 -11246.486155  21605.695442   -298.755393                    
V  5  20894.220162  17918.796532   -744.828086     -0.041823                    
P  6 -13864.805111  16086.579032  15902.407015     31.767655                    
V  6     84.368180 -20297.860264  21065.680287     -0.003826                    
P  7  14866.571707   9317.367147  20035.036594     67.972067                    
V  7 -23702.834508   8827.004577  13256.200777      0.030467                    
P  8  24093.308291   1861.475944  11724.941485      0.920590                    
V  8 -13885.529943   4393.452005  27434.759011      0.000444                    
P  9   4492.344956 -16430.342850 -20939.609828    147.661581                    
V  9  23957.100044  -8061.485890  11751.301546      0.024337                    
P 10  21775.250905   5863.067014  14088.159002    -33.651209                    
V 10  12039.054050  13831.694076 -23547.075138     -0.011190                    
P 11  -4559.046159  20041.685655 -17039.319370   -245.989843                    
V 11 -19221.644511   9735.147387  17298.406208     -0.036806                    
P 12  -5786.313557 -20100.825565 -16476.375688     60.353596                    
V 12  16393.960698  12895.539972 -21299.085976      0.021208                    
P 13   7281.279636  17943.246064  17992.956501    216.836317                    
V 13  -7523.355059  21892.373879 -18721.692141     -0.022599                    
P 14 -15203.114381    941.577638 -21565.965599    198.453426                    
V 14   6419.111767 -27019.557583  -5793.291927      0.011550                    
P 15   2700.252214 -26211.415725  -2263.485500    -91.694108                    
V 15   3883.257937  -2281.081907  31381.235636      0.002387                    
P 16 -11130.687697   9838.958776  22039.105957   -229.173906                    
V 16 -20407.189386 -19003.300838  -1516.934882     -0.014904                    
P 17  14997.008480   2030.408976 -21644.855244    139.693838                    
V 17  -5872.295439  27281.313242  -1729.527831     -0.024752                    
P 18 -20158.566504 -17594.613002    -73.676420    188.292294                    
V 18   1906.232239  -2937.763687  30830.499470      0.018007                    
P 19  -7180.990092  25351.784008     66.548456   -249.971932                    
V 19  -3032.761292   -988.282475  31985.821773     -0.037725                    
P 20  10089.295085  20687.568157 -13476.985335     63.270373                    
V 20 -15035.935136  -8213.178383 -24086.945414     -0.000802                    
P 21 -19280.242590  -7176.873570  17577.892335   -213.585332                    
V 21  19564.993820  -8529.626919  17891.284286     -0.024836                    
P 22 -22116.656986  -6335.419328 -13200.193826    143.153311                    
V 22 -10835.949104 -13539.493757  24209.351773      0.002063                    
P 23   1741.664426  24590.881076   9411.314388    220.104202                    
V 23  -5158.035547  11228.738667 -28827.760008     -0.035403                    
P 25 -17193.039853 -19502.320414  -5609.488536     32.547283                    
V 25   6996.235943   2668.586474 -30807.951052      0.002804                    
P 26  12437.298526 -20886.668857   9607.846287   -221.569400                    
V 26  -1292.327306  13337.601563  29202.699671     -0.551792                    
P 27  11751.136289 -16403.287424 -16393.629632    371.454497                    
V 27  21293.699131  -6389.052223  21330.541767      0.039424                    
P 28  21685.340577  10132.145951 -11193.974029    127.340384                    
V 28   9538.517021  11687.785291  27484.088547      0.041016                    
P 29  -6897.662887 -19973.710304  16185.765630    297.995034                    
V 29   6398.919578 -19458.135702 -21332.172451      0.035498                    
P 30 -18606.148348   2761.030448  18401.055465   -104.063035                    
V 30 -18865.811165 -15084.767276 -16488.835896     -0.182493                    
P 31 -25653.328850   6995.255062  -2153.325547    224.710395                    
V 31   2177.335263  -2801.008074 -31883.130730      0.044270                    
P 32   1291.493349  19565.297933 -17910.177824   -425.889980                    
V 32 -17183.181830 -15412.825993 -17396.053085     -0.046459                    
EOF
